CCSDS_OMM_VERS = 2.0
CREATION_DATE  = 
ORIGINATOR     = 

OBJECT_NAME    = DELTA 2 R/B(1)
OBJECT_ID      = 1990-008B
CENTER_NAME    = EARTH
REF_FRAME      = TEME
TIME_SYSTEM    = UTC
MEAN_ELEMENT_THEORY = SGP/SGP4

EPOCH          = 2025-12-26T02:53:06.232992
MEAN_MOTION    = 15.46332437
ECCENTRICITY   = .0109731
INCLINATION    = 35.6077
RA_OF_ASC_NODE = 294.0589
ARG_OF_PERICENTER = 299.7178
MEAN_ANOMALY   = 59.2672

EPHEMERIS_TYPE = 0
CLASSIFICATION_TYPE = U
NORAD_CAT_ID   = 20453
ELEMENT_SET_NO = 999
REV_AT_EPOCH   = 91470
BSTAR          = .7031E-3
MEAN_MOTION_DOT = .4553E-3
MEAN_MOTION_DDOT = 0

CCSDS_OMM_VERS = 2.0
CREATION_DATE  = 
ORIGINATOR     = 

OBJECT_NAME    = COSMOS 2058
OBJECT_ID      = 1990-010A
CENTER_NAME    = EARTH
REF_FRAME      = TEME
TIME_SYSTEM    = UTC
MEAN_ELEMENT_THEORY = SGP/SGP4

EPOCH          = 2025-12-25T19:23:26.012544
MEAN_MOTION    = 15.10597923
ECCENTRICITY   = .00095403
INCLINATION    = 82.4709
RA_OF_ASC_NODE = 120.1774
ARG_OF_PERICENTER = 223.2716
MEAN_ANOMALY   = 136.7766

EPHEMERIS_TYPE = 0
CLASSIFICATION_TYPE = U
NORAD_CAT_ID   = 20465
ELEMENT_SET_NO = 999
REV_AT_EPOCH   = 93108
BSTAR          = .31288686E-3
MEAN_MOTION_DOT = .5199E-4
MEAN_MOTION_DDOT = 0

CCSDS_OMM_VERS = 2.0
CREATION_DATE  = 
ORIGINATOR     = 

OBJECT_NAME    = SL-14 R/B
OBJECT_ID      = 1990-010B
CENTER_NAME    = EARTH
REF_FRAME      = TEME
TIME_SYSTEM    = UTC
MEAN_ELEMENT_THEORY = SGP/SGP4

EPOCH          = 2025-12-26T00:47:55.730688
MEAN_MOTION    = 14.83483382
ECCENTRICITY   = .0019791
INCLINATION    = 82.5024
RA_OF_ASC_NODE = 336.5612
ARG_OF_PERICENTER = 177.9598
MEAN_ANOMALY   = 182.1701

EPHEMERIS_TYPE = 0
CLASSIFICATION_TYPE = U
NORAD_CAT_ID   = 20466
ELEMENT_SET_NO = 999
REV_AT_EPOCH   = 91756
BSTAR          = .56967E-4
MEAN_MOTION_DOT = .493E-5
MEAN_MOTION_DDOT = 0

CCSDS_OMM_VERS = 2.0
CREATION_DATE  = 
ORIGINATOR     = 

OBJECT_NAME    = SL-14 R/B
OBJECT_ID      = 1990-018B
CENTER_NAME    = EARTH
REF_FRAME      = TEME
TIME_SYSTEM    = UTC
MEAN_ELEMENT_THEORY = SGP/SGP4

EPOCH          = 2025-12-25T21:54:17.971200
MEAN_MOTION    = 14.82059962
ECCENTRICITY   = .0015854
INCLINATION    = 82.5221
RA_OF_ASC_NODE = 292.0530
ARG_OF_PERICENTER = 340.2791
MEAN_ANOMALY   = 19.7808

EPHEMERIS_TYPE = 0
CLASSIFICATION_TYPE = U
NORAD_CAT_ID   = 20511
ELEMENT_SET_NO = 999
REV_AT_EPOCH   = 91165
BSTAR          = .63908E-4
MEAN_MOTION_DOT = .532E-5
MEAN_MOTION_DDOT = 0

CCSDS_OMM_VERS = 2.0
CREATION_DATE  = 
ORIGINATOR     = 

OBJECT_NAME    = HST
OBJECT_ID      = 1990-037B
CENTER_NAME    = EARTH
REF_FRAME      = TEME
TIME_SYSTEM    = UTC
MEAN_ELEMENT_THEORY = SGP/SGP4

EPOCH          = 2025-12-25T20:29:13.333056
MEAN_MOTION    = 15.28210236
ECCENTRICITY   = .00024529
INCLINATION    = 28.4656
RA_OF_ASC_NODE = 183.2171
ARG_OF_PERICENTER = 30.0168
MEAN_ANOMALY   = 330.0567

EPHEMERIS_TYPE = 0
CLASSIFICATION_TYPE = U
NORAD_CAT_ID   = 20580
ELEMENT_SET_NO = 999
REV_AT_EPOCH   = 76200
BSTAR          = .21341277E-3
MEAN_MOTION_DOT = .6262E-4
MEAN_MOTION_DDOT = 0

CCSDS_OMM_VERS = 2.0
CREATION_DATE  = 
ORIGINATOR     = 

OBJECT_NAME    = SL-16 R/B
OBJECT_ID      = 1990-046B
CENTER_NAME    = EARTH
REF_FRAME      = TEME
TIME_SYSTEM    = UTC
MEAN_ELEMENT_THEORY = SGP/SGP4

EPOCH          = 2025-12-25T16:22:59.344320
MEAN_MOTION    = 14.14997410
ECCENTRICITY   = .00122814
INCLINATION    = 70.9992
RA_OF_ASC_NODE = 93.3410
ARG_OF_PERICENTER = 50.9763
MEAN_ANOMALY   = 309.2451

EPHEMERIS_TYPE = 0
CLASSIFICATION_TYPE = U
NORAD_CAT_ID   = 20625
ELEMENT_SET_NO = 999
REV_AT_EPOCH   = 83792
BSTAR          = -.33951721E-4
MEAN_MOTION_DOT = -.113E-5
MEAN_MOTION_DDOT = 0

CCSDS_OMM_VERS = 2.0
CREATION_DATE  = 
ORIGINATOR     = 

OBJECT_NAME    = COSMOS 2084
OBJECT_ID      = 1990-055A
CENTER_NAME    = EARTH
REF_FRAME      = TEME
TIME_SYSTEM    = UTC
MEAN_ELEMENT_THEORY = SGP/SGP4

EPOCH          = 2025-12-26T01:19:54.271200
MEAN_MOTION    = 15.05094967
ECCENTRICITY   = .0029579
INCLINATION    = 62.7887
RA_OF_ASC_NODE = 226.6194
ARG_OF_PERICENTER = 176.4208
MEAN_ANOMALY   = 183.7109

EPHEMERIS_TYPE = 0
CLASSIFICATION_TYPE = U
NORAD_CAT_ID   = 20663
ELEMENT_SET_NO = 999
REV_AT_EPOCH   = 92523
BSTAR          = .19986E-3
MEAN_MOTION_DOT = .2679E-4
MEAN_MOTION_DDOT = 0

CCSDS_OMM_VERS = 2.0
CREATION_DATE  = 
ORIGINATOR     = 

OBJECT_NAME    = SL-6 R/B(2)
OBJECT_ID      = 1990-055D
CENTER_NAME    = EARTH
REF_FRAME      = TEME
TIME_SYSTEM    = UTC
MEAN_ELEMENT_THEORY = SGP/SGP4

EPOCH          = 2025-12-25T17:45:44.275392
MEAN_MOTION    = 15.03133991
ECCENTRICITY   = .00142524
INCLINATION    = 62.7827
RA_OF_ASC_NODE = 145.2403
ARG_OF_PERICENTER = 317.7945
MEAN_ANOMALY   = 42.2056

EPHEMERIS_TYPE = 0
CLASSIFICATION_TYPE = U
NORAD_CAT_ID   = 20666
ELEMENT_SET_NO = 999
REV_AT_EPOCH   = 92707
BSTAR          = .20754339E-3
MEAN_MOTION_DOT = .2624E-4
MEAN_MOTION_DDOT = 0

CCSDS_OMM_VERS = 2.0
CREATION_DATE  = 
ORIGINATOR     = 

OBJECT_NAME    = SL-8 R/B
OBJECT_ID      = 1990-078B
CENTER_NAME    = EARTH
REF_FRAME      = TEME
TIME_SYSTEM    = UTC
MEAN_ELEMENT_THEORY = SGP/SGP4

EPOCH          = 2025-12-25T23:52:20.439264
MEAN_MOTION    = 14.86404679
ECCENTRICITY   = .0370039
INCLINATION    = 82.9063
RA_OF_ASC_NODE = 317.4415
ARG_OF_PERICENTER = 261.2619
MEAN_ANOMALY   = 94.6531

EPHEMERIS_TYPE = 0
CLASSIFICATION_TYPE = U
NORAD_CAT_ID   = 20775
ELEMENT_SET_NO = 999
REV_AT_EPOCH   = 79834
BSTAR          = .47893E-3
MEAN_MOTION_DOT = .15522E-3
MEAN_MOTION_DDOT = 0

CCSDS_OMM_VERS = 2.0
CREATION_DATE  = 
ORIGINATOR     = 

OBJECT_NAME    = SL-8 R/B
OBJECT_ID      = 1991-006B
CENTER_NAME    = EARTH
REF_FRAME      = TEME
TIME_SYSTEM    = UTC
MEAN_ELEMENT_THEORY = SGP/SGP4

EPOCH          = 2025-12-26T01:32:48.149088
MEAN_MOTION    = 13.77492658
ECCENTRICITY   = .002131
INCLINATION    = 82.9413
RA_OF_ASC_NODE = 224.8016
ARG_OF_PERICENTER = 240.2146
MEAN_ANOMALY   = 285.5074

EPHEMERIS_TYPE = 0
CLASSIFICATION_TYPE = U
NORAD_CAT_ID   = 21088
ELEMENT_SET_NO = 999
REV_AT_EPOCH   = 75393
BSTAR          = .90186E-4
MEAN_MOTION_DOT = .105E-5
MEAN_MOTION_DDOT = 0

CCSDS_OMM_VERS = 2.0
CREATION_DATE  = 
ORIGINATOR     = 

OBJECT_NAME    = OKEAN-3
OBJECT_ID      = 1991-039A
CENTER_NAME    = EARTH
REF_FRAME      = TEME
TIME_SYSTEM    = UTC
MEAN_ELEMENT_THEORY = SGP/SGP4

EPOCH          = 2025-12-26T02:52:51.864672
MEAN_MOTION    = 15.04199324
ECCENTRICITY   = .0013642
INCLINATION    = 82.5162
RA_OF_ASC_NODE = 48.0953
ARG_OF_PERICENTER = 214.6153
MEAN_ANOMALY   = 145.4187

EPHEMERIS_TYPE = 0
CLASSIFICATION_TYPE = U
NORAD_CAT_ID   = 21397
ELEMENT_SET_NO = 999
REV_AT_EPOCH   = 85397
BSTAR          = .18281E-3
MEAN_MOTION_DOT = .257E-4
MEAN_MOTION_DDOT = 0

CCSDS_OMM_VERS = 2.0
CREATION_DATE  = 
ORIGINATOR     = 

OBJECT_NAME    = COSMOS 2151
OBJECT_ID      = 1991-042A
CENTER_NAME    = EARTH
REF_FRAME      = TEME
TIME_SYSTEM    = UTC
MEAN_ELEMENT_THEORY = SGP/SGP4

EPOCH          = 2025-12-26T02:25:17.734080
MEAN_MOTION    = 14.99736058
ECCENTRICITY   = .00115
INCLINATION    = 82.4967
RA_OF_ASC_NODE = 154.6268
ARG_OF_PERICENTER = 312.7171
MEAN_ANOMALY   = 47.3084

EPHEMERIS_TYPE = 0
CLASSIFICATION_TYPE = U
NORAD_CAT_ID   = 21422
ELEMENT_SET_NO = 999
REV_AT_EPOCH   = 85216
BSTAR          = .18308E-3
MEAN_MOTION_DOT = .2289E-4
MEAN_MOTION_DDOT = 0

