DELTA 2 R/B(1)          
1 20453U 90008B   25360.12021103  .00045530  00000+0  70310-3 0  9997
2 20453  35.6077 294.0589 0109731 299.7178  59.2672 15.46332437914705
COSMOS 2058             
1 20465U 90010A   25359.80793996  .00005199  00000+0  31289-3 0  9991
2 20465  82.4709 120.1774 0009540 223.2716 136.7766 15.10597923931081
SL-14 R/B               
1 20466U 90010B   25360.03328392  .00000493  00000+0  56967-4 0  9996
2 20466  82.5024 336.5612 0019791 177.9598 182.1701 14.83483382917562
SL-14 R/B               
1 20511U 90018B   25359.91270800  .00000532  00000+0  63908-4 0  9997
2 20511  82.5221 292.0530 0015854 340.2791  19.7808 14.82059962911652
HST                     
1 20580U 90037B   25359.85362654  .00006262  00000+0  21341-3 0  9996
2 20580  28.4656 183.2171 0002452  30.0168 330.0567 15.28210236762001
SL-16 R/B               
1 20625U 90046B   25359.68263130 -.00000113  00000+0 -33952-4 0  9999
2 20625  70.9992  93.3410 0012281  50.9763 309.2451 14.14997410837920
COSMOS 2084             
1 20663U 90055A   25360.05548925  .00002679  00000+0  19986-3 0  9999
2 20663  62.7887 226.6194 0029579 176.4208 183.7109 15.05094967925233
SL-6 R/B(2)             
1 20666U 90055D   25359.74009578  .00002624  00000+0  20754-3 0  9997
2 20666  62.7827 145.2403 0014252 317.7945  42.2056 15.03133991927072
SL-8 R/B                
1 20775U 90078B   25359.99468101  .00015522  00000+0  47893-3 0  9995
2 20775  82.9063 317.4415 0370039 261.2619  94.6531 14.86404679798343
SL-8 R/B                
1 21088U 91006B   25360.06444617  .00000105  00000+0  90186-4 0  9996
2 21088  82.9413 224.8016 0021310 240.2146 285.5074 13.77492658753937
OKEAN-3                 
1 21397U 91039A   25360.12004473  .00002570  00000+0  18281-3 0  9997
2 21397  82.5162  48.0953 0013642 214.6153 145.4187 15.04199324853975
COSMOS 2151             
1 21422U 91042A   25360.10089970  .00002289  00000+0  18308-3 0  9990
2 21422  82.4967 154.6268 0011500 312.7171  47.3084 14.99736058852160
